YUNYAO-1 43             
1 63344U 25059A   25110.46867833  .00006527  00000+0  40880-3 0  9997
2 63344  97.5992 290.4047 0013370 178.0660 182.0623 15.09638986  4530
YUNYAO-1 44             
1 63345U 25059B   25110.46743098  .00006841  00000+0  42746-3 0  9996
2 63345  97.5979 290.4016 0013850 179.0374 181.0884 15.09699388  4539
YUNYAO-1 45             
1 63346U 25059C   25110.46676097  .00006661  00000+0  41512-3 0  9991
2 63346  97.6009 290.4138 0013432 180.6622 179.4591 15.09814077  4530
YUNYAO-1 46             
1 63347U 25059D   25110.46678207  .00006715  00000+0  41850-3 0  9992
2 63347  97.6001 290.4108 0013562 180.7952 179.3258 15.09805536  4530
YUNYAO-1 47             
1 63348U 25059E   25110.46547466  .00006745  00000+0  41969-3 0  9999
2 63348  97.5975 290.4024 0013604 181.6618 178.4568 15.09865140  4523
YUNYAO-1 48             
1 63349U 25059F   25110.46491247  .00006852  00000+0  42594-3 0  9999
2 63349  97.5987 290.4080 0013260 182.7078 177.4081 15.09894451  4525
OTC P1 A                
1 63351U 25061A   25109.94723027  .00008559  00000+0  54216-3 0  9990
2 63351  97.5180  86.1436 0018681 281.7818  78.1315 15.09056804  3665
OTC P1 B                
1 63352U 25061B   25109.94576959  .00008556  00000+0  54073-3 0  9999
2 63352  97.5188  86.1484 0018277 281.1469  78.7705 15.09144289  3668
OTC P1 C                
1 63353U 25061C   25109.94152549  .00008405  00000+0  52690-3 0  9991
2 63353  97.5240  86.1753 0019241 273.5573  86.3455 15.09434814  3663
OTC P1 D                
1 63354U 25061D   25109.94014167  .00008404  00000+0  52583-3 0  9995
2 63354  97.5246  86.1797 0018926 272.7039  87.2024 15.09507548  3662
OTC P1 E                
1 63355U 25061E   25109.93953936  .00008408  00000+0  52614-3 0  9990
2 63355  97.5173  86.1490 0016678 277.2652  82.6681 15.09539361  3661
OTC P1 F                
1 63356U 25061F   25109.93088643  .00008221  00000+0  50661-3 0  9998
2 63356  97.5159  86.1539 0017829 265.2958  94.6235 15.10089034  3662
OTC P1 G                
1 63357U 25061G   25109.93239477  .00008129  00000+0  50218-3 0  9997
2 63357  97.5161  86.1525 0018226 266.3582  93.5563 15.09996037  3668
OTC P1 H                
1 63358U 25061H   25109.93747208  .00008433  00000+0  52570-3 0  9995
2 63358  97.5166  86.1483 0016409 275.7945  84.1413 15.09681193  3669
ELECTRON KICK STAGE R/B 
1 63359U 25061J   25110.50225418  .00016901  00000+0  76316-3 0  9998
2 63359  97.5161  87.0818 0048905 207.2745 152.5921 15.19955045  3767
TIANLIAN 2-04           
1 63361U 25062A   25110.47713169 -.00000139  00000+0  00000+0 0  9993
2 63361   5.4613 280.1771 0031063   1.2040 179.2966  1.00273082   357
CZ-3B R/B               
1 63362U 25062B   25110.10399490  .00117380 -10111-6  23705-2 0  9999
2 63362  27.1785  51.1292 7214791 194.6246 120.7517  2.41332487   596
STARLINK-32840          
1 63363U 25063A   25109.91668981  .00031332  00000+0  56941-3 0  9991
2 63363  53.1600 128.6804 0001389  80.8753 333.4237 15.49295667  5058
STARLINK-32543          
1 63364U 25063B   25110.00002315  .00014706  00000+0  27204-3 0  9993
2 63364  53.1600 128.2777 0001311  93.2851  67.9828 15.49302286  5013
STARLINK-33741          
1 63365U 25063C   25109.91668981 -.00015713  00000+0 -27480-3 0  9996
2 63365  53.1604 128.0468 0000931  76.2557 290.2323 15.49333568  5067
STARLINK-33742          
1 63366U 25063D   25109.91668981  .00030383  00000+0  55242-3 0  9992
2 63366  53.1603 128.0416 0001156  89.1359 279.2798 15.49298179  4962
STARLINK-33734          
1 63367U 25063E   25110.50001157 -.01725055  00000+0 -31143-1 0  9998
2 63367  53.1599 124.4168 0001095  59.8332  14.6671 15.52385778  5045
STARLINK-33578          
1 63368U 25063F   25109.91668981  .00044675  00000+0  80727-3 0  9999
2 63368  53.1604 128.0343 0001134  86.3307 285.9197 15.49289639  4982
STARLINK-33626          
1 63369U 25063G   25109.91668981  .00030984  00000+0  56318-3 0  9997
2 63369  53.1604 128.0300 0001170  88.7901 285.3758 15.49296632  4980
STARLINK-33657          
1 63370U 25063H   25109.91668981  .00037581  00000+0  68089-3 0  9997
2 63370  53.1604 128.0258 0001148  85.6464 290.4379 15.49293324  4980
STARLINK-33648          
1 63371U 25063J   25109.91668981  .00033064  00000+0  60034-3 0  9992
2 63371  53.1604 128.0218 0001167  87.5399 290.4598 15.49294300  5064
STARLINK-33614          
1 63372U 25063K   25109.91668981  .00030625  00000+0  55677-3 0  9990
2 63372  53.1604 128.0180 0001193  86.4192 293.4971 15.49296710  5066
STARLINK-33617          
1 63373U 25063L   25109.91668981  .00037063  00000+0  67180-3 0  9996
2 63373  53.1604 128.0139 0001257  90.9125 290.9194 15.49286911  4989
STARLINK-33618          
1 63374U 25063M   25109.91668981  .00033313  00000+0  60477-3 0  9993
2 63374  53.1605 128.0099 0001167  86.8353 296.9146 15.49295105  5061
STARLINK-33621          
1 63375U 25063N   25109.91668981  .00034654  00000+0  62874-3 0  9996
2 63375  53.1605 128.0066 0001170  86.8633 298.8058 15.49292281  4986
STARLINK-33539          
1 63376U 25063P   25107.53529307  .00054594  00000+0  54921-3 0  9990
2 63376  53.1592 138.7651 0002463 288.3803  71.6944 15.64922863  4618
STARLINK-33634          
1 63377U 25063Q   25109.91668981  .00038352  00000+0  69474-3 0  9990
2 63377  53.1605 127.9976 0001165  87.9112 301.5933 15.49288731  5063
STARLINK-33640          
1 63378U 25063R   25109.91668981  .00044920  00000+0  81174-3 0  9990
2 63378  53.1605 127.9941 0001142  85.7343 305.6832 15.49285720  5061
STARLINK-33636          
1 63379U 25063S   25109.91668981  .00040090  00000+0  72560-3 0  9994
2 63379  53.1605 127.9900 0001210  85.2023 308.1316 15.49292300  4968
STARLINK-33653          
1 63380U 25063T   25109.91668981  .00044229  00000+0  79938-3 0  9990
2 63380  53.1605 127.9857 0001192  85.4026 309.8511 15.49288022  4999
STARLINK-33643          
1 63381U 25063U   25109.91668981  .00041732  00000+0  75492-3 0  9998
2 63381  53.1605 127.9821 0001194  84.1940 312.9746 15.49289191  5077
STARLINK-33633          
1 63382U 25063V   25110.16668981  .00023206  00000+0  42318-3 0  9995
2 63382  53.1609 126.7791 0001444  85.5632 270.3752 15.49368287  4950
STARLINK-33748          
1 63383U 25063W   25109.91668981  .00012333  00000+0  22948-3 0  9993
2 63383  53.1602 127.7871 0001564  95.2751  35.1368 15.49305979  5069
STARLINK-33658          
1 63384U 25063X   25110.16668981 -.00059393  00000+0 -10668-2 0  9997
2 63384  53.1608 126.7745 0001211  93.3134 264.7689 15.49339291  5057
STARLINK-33616          
1 63385U 25063Y   25109.91668981  .00034990  00000+0  63476-3 0  9999
2 63385  53.1605 127.9614 0001193  84.7768 321.9782 15.49290525  4964
STARLINK-33571          
1 63386U 25063Z   25110.50001157 -.01474074  00000+0 -31755-1 0  9990
2 63386  53.1604 124.4158 0001323  65.5464   5.5081 15.46934431  5038
STARLINK-33533          
1 63387U 25063AA  25109.91668981  .00028149  00000+0  51264-3 0  9992
2 63387  53.1605 127.9502 0001193  85.2393 327.2671 15.49293269  4999
STARLINK-33629          
1 63388U 25063AB  25110.58335648 -.00033688  00000+0 -60051-3 0  9999
2 63388  53.1601 124.7684 0001250  82.9517  88.1976 15.49296721  5110
STARLINK-33656          
1 63389U 25063AC  25109.91668981  .00046256  00000+0  83643-3 0  9999
2 63389  53.1606 127.9654 0001131  94.0634 310.9495 15.49254082  5071
LEMUR-2-BALTO           
1 63395U 25052BH  25109.90324058  .00008745  00000+0  83225-3 0  9994
2 63395  97.7326   4.4735 0002870  25.9241 334.2122 14.93653685  5445
LEMUR-2-MARACHE-FRAN    
1 63396U 25052BJ  25088.26217952  .00003893  00000+0  37899-3 0  9999
2 63396  97.7387 343.1835 0004247  78.4226 281.7470 14.93086536  2223
TJS-16                  
1 63397U 25064A   25110.76460648 -.00000175  00000+0  00000+0 0  9997
2 63397   0.0562   7.8827 0001501  75.8078 193.1506  1.00270873   448
CZ-7A R/B               
1 63398U 25064B   25110.09015523  .00303051  28442-4  32143-3 0  9992
2 63398  19.6068  80.3380 7163670 195.3448 118.9057  2.50606124   521
STARLINK-33531          
1 63399U 25065A   25110.50001157 -.01378073  00000+0 -14490-1 0  9995
2 63399  42.9998 143.2706 0001585 288.4353 141.3135 15.66514263  4021
STARLINK-33652          
1 63400U 25065B   25110.16668981 -.01446419  00000+0 -14365-1 0  9995
2 63400  42.9996 145.2627 0001570 274.3371  74.6612 15.67570623  4014
STARLINK-33707          
1 63401U 25065C   25110.50001157 -.01378571  00000+0 -14496-1 0  9998
2 63401  42.9998 143.2611 0001569 289.0750 144.5082 15.66514302  3793
STARLINK-33668          
1 63402U 25065D   25110.50001157 -.01376489  00000+0 -14471-1 0  9998
2 63402  42.9998 143.2562 0001661 289.8872 145.6115 15.66513781  4021
STARLINK-33676          
1 63403U 25065E   25110.50001157 -.01378477  00000+0 -14494-1 0  9993
2 63403  42.9998 143.2515 0001675 289.1885 148.2278 15.66514666  4024
STARLINK-33711          
1 63404U 25065F   25110.50001157 -.01377071  00000+0 -14480-1 0  9998
2 63404  42.9998 143.2413 0001384 282.2506 159.0028 15.66513161  4070
STARLINK-33708          
1 63405U 25065G   25109.91668981 -.01404362  00000+0 -13737-1 0  9994
2 63405  42.9998 146.7417 0001591 275.3077 108.5066 15.68328035  4009
STARLINK-33690          
1 63406U 25065H   25110.50001157 -.01378498  00000+0 -14495-1 0  9990
2 63406  42.9998 143.2368 0001623 285.3677 157.8020 15.66513940  4073
STARLINK-33694          
1 63407U 25065J   25110.50001157 -.01370779  00000+0 -13305-1 0  9994
2 63407  43.0000 143.0547 0001481 291.1204 224.4880 15.68440169  4079
STARLINK-33692          
1 63408U 25065K   25110.50001157 -.01370163  00000+0 -13299-1 0  9994
2 63408  42.9999 143.0503 0001490 291.4375 226.0899 15.68438716  4072
STARLINK-33693          
1 63409U 25065L   25110.50001157 -.01361158  00000+0 -13204-1 0  9995
2 63409  42.9999 143.0598 0001480 287.7767 225.9194 15.68432504  4029
STARLINK-33677          
1 63410U 25065M   25110.50001157 -.01359744  00000+0 -13189-1 0  9997
2 63410  42.9999 143.0453 0001464 286.6580 232.7891 15.68431854  4076
